{
  "norad_id": 56458,
  "name": "STARLINK-6050",
  "history": [
    {
      "epoch": "2026-05-03T16:41:18.025728Z",
      "apogee_km": 574.0311529176388,
      "perigee_km": 570.2154600093918,
      "latitude_deg": -8.72658258394093e-05,
      "longitude_deg": -106.08388128816122,
      "height_km": 574.6520272177505,
      "semi_major_axis_km": 6950.260306463515,
      "eccentricity": 0.0002745,
      "inclination_deg": 70.0003,
      "raan_deg": 5.8366,
      "arg_perigee_deg": 266.9502,
      "mean_anomaly_deg": 93.1342,
      "mean_motion_rev_day": 14.983082
    },
    {
      "epoch": "2026-05-04T18:19:26.107968Z",
      "apogee_km": 573.7205447157803,
      "perigee_km": 570.3900125758528,
      "latitude_deg": 3.936863199050845e-05,
      "longitude_deg": -134.36603088875248,
      "height_km": 574.3289282878912,
      "semi_major_axis_km": 6950.192278645816,
      "eccentricity": 0.0002396,
      "inclination_deg": 70.0003,
      "raan_deg": 3.1409,
      "arg_perigee_deg": 275.2774,
      "mean_anomaly_deg": 84.8112,
      "mean_motion_rev_day": 14.98330198
    },
    {
      "epoch": "2026-05-05T18:21:27.005760Z",
      "apogee_km": 573.9908631388826,
      "perigee_km": 570.136281901363,
      "latitude_deg": -7.709882770968999e-05,
      "longitude_deg": -138.37764181195658,
      "height_km": 574.6026759798714,
      "semi_major_axis_km": 6950.2005725201225,
      "eccentricity": 0.0002773,
      "inclination_deg": 70.0001,
      "raan_deg": 0.6201,
      "arg_perigee_deg": 266.6729,
      "mean_anomaly_deg": 93.4112,
      "mean_motion_rev_day": 14.98327516
    },
    {
      "epoch": "2026-05-06T15:11:44.560896Z",
      "apogee_km": 574.9063538781365,
      "perigee_km": 571.5349454180578,
      "latitude_deg": -1.9446026800566083e-05,
      "longitude_deg": -93.99346553022252,
      "height_km": 576.5585548861975,
      "semi_major_axis_km": 6951.357649648097,
      "eccentricity": 0.0002425,
      "inclination_deg": 69.9993,
      "raan_deg": 358.4332,
      "arg_perigee_deg": 122.9758,
      "mean_anomaly_deg": 237.1634,
      "mean_motion_rev_day": 14.97953429
    },
    {
      "epoch": "2026-05-07T20:01:31.289088Z",
      "apogee_km": 575.205123584682,
      "perigee_km": 568.4525367840743,
      "latitude_deg": 6.714288056809981e-07,
      "longitude_deg": -170.65495485103168,
      "height_km": 571.899185711762,
      "semi_major_axis_km": 6949.965830184377,
      "eccentricity": 0.0004858,
      "inclination_deg": 70.0009,
      "raan_deg": 355.4004,
      "arg_perigee_deg": 314.2833,
      "mean_anomaly_deg": 45.7927,
      "mean_motion_rev_day": 14.98403428
    },
    {
      "epoch": "2026-05-08T20:03:31.933728Z",
      "apogee_km": 573.4022007353033,
      "perigee_km": 570.3275199122963,
      "latitude_deg": -2.7859392540641934e-05,
      "longitude_deg": -174.67017538787803,
      "height_km": 574.6139433887314,
      "semi_major_axis_km": 6950.0018603237995,
      "eccentricity": 0.0002212,
      "inclination_deg": 70.0017,
      "raan_deg": 352.8749,
      "arg_perigee_deg": 257.8996,
      "mean_anomaly_deg": 102.1915,
      "mean_motion_rev_day": 14.98391776
    },
    {
      "epoch": "2026-05-09T18:29:29.537664Z",
      "apogee_km": 573.9264264471831,
      "perigee_km": 570.1774945218976,
      "latitude_deg": -2.6634208349562425e-05,
      "longitude_deg": -154.43657025377772,
      "height_km": 574.7505719845808,
      "semi_major_axis_km": 6950.18896048454,
      "eccentricity": 0.0002697,
      "inclination_deg": 69.9993,
      "raan_deg": 350.5198,
      "arg_perigee_deg": 261.672,
      "mean_anomaly_deg": 98.4133,
      "mean_motion_rev_day": 14.98331271
    },
    {
      "epoch": "2026-05-10T18:31:30.152064Z",
      "apogee_km": 573.9551072527174,
      "perigee_km": 570.1394560820827,
      "latitude_deg": 4.8091849365361814e-05,
      "longitude_deg": -158.45112537267363,
      "height_km": 574.5006286827615,
      "semi_major_axis_km": 6950.1842816674,
      "eccentricity": 0.0002745,
      "inclination_deg": 69.9989,
      "raan_deg": 347.9948,
      "arg_perigee_deg": 269.2124,
      "mean_anomaly_deg": 90.8721,
      "mean_motion_rev_day": 14.98332784
    },
    {
      "epoch": "2026-05-11T20:09:39.151008Z",
      "apogee_km": 574.0016787466948,
      "perigee_km": 570.1137398263199,
      "latitude_deg": -5.2497776398690756e-05,
      "longitude_deg": 173.2652160338541,
      "height_km": 574.5196093840743,
      "semi_major_axis_km": 6950.194709286507,
      "eccentricity": 0.0002797,
      "inclination_deg": 69.999,
      "raan_deg": 345.3015,
      "arg_perigee_deg": 268.9769,
      "mean_anomaly_deg": 91.1069,
      "mean_motion_rev_day": 14.98329412
    },
    {
      "epoch": "2026-05-12T20:00:01.999008Z",
      "apogee_km": 573.9460308374419,
      "perigee_km": 570.1470605113764,
      "latitude_deg": -40.52218624245661,
      "longitude_deg": 154.16375703714556,
      "height_km": 585.64892636686,
      "semi_major_axis_km": 6950.183545674409,
      "eccentricity": 0.0002733,
      "inclination_deg": 70.0012,
      "raan_deg": 342.7966,
      "arg_perigee_deg": 270.853,
      "mean_anomaly_deg": 45.6609,
      "mean_motion_rev_day": 14.98333022
    },
    {
      "epoch": "2026-05-13T07:24:36.082944Z",
      "apogee_km": 573.8830888673447,
      "perigee_km": 570.0869322251847,
      "latitude_deg": -9.050048706548419e-06,
      "longitude_deg": -0.6232150002355414,
      "height_km": 574.4345646253868,
      "semi_major_axis_km": 6950.122010546264,
      "eccentricity": 0.0002731,
      "inclination_deg": 69.9987,
      "raan_deg": 341.5979,
      "arg_perigee_deg": 269.3228,
      "mean_anomaly_deg": 90.7618,
      "mean_motion_rev_day": 14.98352921
    },
    {
      "epoch": "2026-05-13T23:25:56.887968Z",
      "apogee_km": 574.0333791533812,
      "perigee_km": 570.026468918335,
      "latitude_deg": 4.3071272968309924e-05,
      "longitude_deg": 116.69709823684165,
      "height_km": 574.6661950971567,
      "semi_major_axis_km": 6950.166924035858,
      "eccentricity": 0.00028826,
      "inclination_deg": 69.9993,
      "raan_deg": 339.9129,
      "arg_perigee_deg": 264.0131,
      "mean_anomaly_deg": 96.07,
      "mean_motion_rev_day": 14.98338397
    },
    {
      "epoch": "2026-05-14T13:51:09.690336Z",
      "apogee_km": 573.9560843114587,
      "perigee_km": 570.157664355258,
      "latitude_deg": 1.111506269464646e-05,
      "longitude_deg": -101.711973909406,
      "height_km": 574.4965470743053,
      "semi_major_axis_km": 6950.1938743333585,
      "eccentricity": 0.00027326,
      "inclination_deg": 69.9986,
      "raan_deg": 338.3994,
      "arg_perigee_deg": 269.6203,
      "mean_anomaly_deg": 90.4643,
      "mean_motion_rev_day": 14.98329682
    },
    {
      "epoch": "2026-05-16T12:19:03.260352Z",
      "apogee_km": 573.9559165218752,
      "perigee_km": 570.1430442187448,
      "latitude_deg": 3.0057564167676873e-05,
      "longitude_deg": -85.47522206116518,
      "height_km": 574.4687159036378,
      "semi_major_axis_km": 6950.186480370309,
      "eccentricity": 0.0002743,
      "inclination_deg": 69.9985,
      "raan_deg": 333.5176,
      "arg_perigee_deg": 270.236,
      "mean_anomaly_deg": 89.8485,
      "mean_motion_rev_day": 14.98332073
    }
  ]
}